#dP2023 12  9  6  0  0.00000000      96 __u+U IGS20 EXT  IAC
## 2291 540000.00000000   900.00000000 60287 0.2500000000000
+  116   C06C07C08C09C10C11C12C13C14C16C19C20C21C22C23C24C25
+        C26C27C28C29C30C32C33C34C35C36C37C38C39C40C41C42C43
+        C44C45C46E02E03E04E05E07E08E09E10E11E12E13E15E18E19
+        E21E24E25E26E27E30E31E33E34E36G01G02G03G04G05G06G07
+        G09G10G11G12G13G14G15G16G17G18G19G20G21G22G23G24G25
+        G26G27G28G29G30G31G32J02J03J04R01R02R03R04R05R07R08
+        R09R11R12R13R14R15R16R17R18R19R20R21R22R24  0  0  0
++         8 13  9  8 12  9  7  8  8  9  8  8  6  7  8  8  9
++         8  8  8 10 10  9  9  9  8  8 10 10  9 10  8  9  9
++         9  8 10  8  7  7  7  7  8  7  7  7  8  8  7  7  8
++         8  8  8  8  8  8  7  7  7  7  8  8  8  7  7  7  8
++         7  8  7  7  7  7  7  7  8  8  8  7  8  8  8  8  7
++         7  7  7  8  7  7  7  9  8  9  8  7  7  6  8  8  9
++         8  8  7  8  8  9  8  8  8  8  8  7  7  9  0  0  0
%c M  cc GPS ccc cccc cccc cccc cccc ccccc ccccc ccccc ccccc
%c cc cc ccc ccc cccc cccc cccc cccc ccccc ccccc ccccc ccccc
%f  0.0000000  0.000000000  0.00000000000  0.000000000000000
%f  0.0000000  0.000000000  0.00000000000  0.000000000000000
%i    0    0    0    0      0      0      0      0         0
%i    0    0    0    0      0      0      0      0         0
/* IAC                                ULTRA-RAPID PREDICTION
/* S/V CLOCKS ARE ALIGNED TO GNSS TIME                      
/* G:C1WC2W R:C1PC2P E:C1XC5X C:C2IC6I J:C1CC2S             
/* PCV:IGS20_2290 OL/AL:FES2004  NONE     YN ORB:CoN CLK:CoN
*  2023 12 09  7 45  0.00000000
PC06 -17985.389448  27812.287859  25952.358872    199.188264
PC07  -7323.076496  40614.258816   9219.589186   -446.060282
PC08    221.135992  23647.506531 -34866.283714    191.885839
PC09  -6510.160079  26832.283905  32134.823228   -193.934617
PC10  -1106.709558  42396.520880   2324.144220    -46.686723
PC11 -22819.241595  15893.566731   2511.692826    297.209921
PC12 -20972.745558   1209.166394  18419.037408    831.776352
PC13   5755.492130  26748.929901 -31829.130990    393.389397
PC14 -12229.905912  13353.260774 -21237.784699   -285.180756
PC16 -20093.791591  27444.047596  24959.089788   -216.806095
PC19   7036.414473 -21747.885155  16017.801442   -955.285898
PC20  15016.299697  -4624.853276  23067.312362     45.211971
PC21 -14585.030716 -16879.709443 -16746.185728   -968.344673
PC22  -5444.370204 -27351.431922   -711.444421   -193.655693
PC23   6752.310760  17954.959979  20260.794184   -806.895134
PC24 -25927.466787  -1406.092324  10245.848028    675.040420
PC25 -12467.407767  12333.272920  21697.939902    273.977305
PC26 -24002.786377 -12782.584866  -6370.671831   -217.652490
PC27  15893.607146   6726.803611 -21945.671761    239.627727
PC28    440.756359  18575.633162 -20812.039610    181.211634
PC29  17072.502822 -21206.760448   6131.465257    212.123460
PC30  23292.172207  -9743.208176 -11912.584633    -10.011662
PC32  14708.299659  16875.182387  16676.266828   -541.104447
PC33  -6961.812507  21739.389565 -16059.381632   -942.137642
PC34 -23360.181696  10926.358848  10629.063146    320.971822
PC35  -1206.073914 -18597.586784  20774.069926    484.796080
PC36  13528.971982 -11588.436784 -21463.146141   -100.492494
PC37  23332.242004  13612.503173   6946.301802   -917.276511
PC38  -8647.842963  21325.945222 -35285.335093    122.883161
PC39 -23010.349737  28240.295604  21069.809439     -6.013892
PC40 -12718.522212  38451.892107  12230.528559    -47.146451
PC41   5104.713086  27437.299413     -6.659397   -872.889570
PC42 -15399.423416   2902.481561 -23051.693533   -484.175210
PC43 -17658.993400  20942.532901  -5270.530834     51.564108
PC44 -16063.408852  -6404.320402  21886.864134    317.338445
PC45  -7343.320781 -17914.702868 -20115.725226    -53.374828
PC46  25505.541329    655.951232 -11262.674387   -106.091693
PE02  17594.037350  -3539.242450 -23540.903778     85.125948
PE03  19062.128190 -15189.406579  16781.396124    -78.902607
PE04 -11016.674764  27465.817475    561.724553   -275.947003
PE05  15979.119222   5786.729569  24231.495347   4698.739236
PE07  -3195.489653 -23815.893052 -17283.945311    -92.085016
PE08  11361.791082 -27329.722795      6.976138   -189.409656
PE09   3008.211719  23863.338161  17253.107319   -256.497847
PE10  -1914.896454  16239.707066 -24672.869206   -584.983544
PE11  10410.516466  14192.734666 -23802.096577   3257.281039
PE12 -12601.202520  15732.494341 -21667.555713   -811.107904
PE13  -9603.833080 -14342.850751  24055.781526    -19.662155
PE15  13146.915154 -15597.701591  21461.914752    -73.761791
PE18 -18751.889396  21659.333263   8303.241062     74.068045
PE19 -19266.693215  12819.864566 -18451.463586  -1051.761759
PE21 -22230.103012 -14793.668318  12779.887909   -567.992146
PE24  13675.191674  25459.475434   6317.530313   -475.955300
PE25  22190.363123  15097.607062 -12467.375232     -2.235698
PE26 -26739.579467  -4409.341894  11922.448452    304.414493
PE27 -14105.364991 -25357.176807  -5896.157710   -219.716177
PE30   2617.294569 -20699.683526 -21016.258112   -727.313807
PE31  -2254.444493  20846.754935  20892.980419    -11.396202
PE33 -28094.342732   7348.101589  -5752.197405      3.862845
PE34  27850.311724  -7749.273733   6338.241957    -82.368902
PE36  26395.600562   4715.294440 -12533.572704   -155.196772
PG01   7199.830866  13713.080196 -21977.573963    163.736779
PG02     12.052616  15054.905463 -21364.786496   -518.060906
PG03  10611.461207  23026.301480  -8239.567719     41.642554
PG04   1756.633811  21620.496295  15244.104336    234.682999
PG05   -553.655740 -19565.096233  17735.462266   -153.440086
PG06  25220.738482  -6575.354089   5464.490152    483.370759
PG07  22182.749927   7036.622019  13705.601982     -7.307768
PG09  10852.096827  12396.137981  20734.253158     21.266860
PG10 -18711.379171  -4352.026584 -18290.828351    -64.594125
PG11  18265.042030 -11950.558131  15120.983932   -493.521989
PG12  -8251.047060 -23758.650058  -8935.424462   -455.548264
PG13  13358.321341 -22818.902143   -174.270444    603.761923
PG14  19791.258260   7754.958456 -16011.200880    265.837216
PG15    330.919687 -25368.766289  -7959.068367    105.129771
PG16  -6823.301341  15351.088901  20135.520108   -407.534978
PG17  16609.391756  -2585.335402 -20164.439741    722.263005
PG18 -23044.150993  -5717.089772  12105.793762   -501.431870
PG19  18303.283893 -10753.484467 -15929.621096    409.985365
PG20  10438.259596 -11373.769775  21665.950953    397.559221
PG21  -3384.493659  15489.753838 -20634.452642    142.055505
PG22  16894.248441    764.274678 -19965.760104     69.291159
PG23 -20053.510221 -15039.986835  -9046.986171    112.854302
PG24  -1109.728373 -16062.730992 -21496.866582   -389.446713
PG25 -17342.393061 -20228.826166   1526.569071    480.755334
PG26 -13804.760304   8036.728259  21110.885307    210.671371
PG27 -12798.726283  22446.336686   4816.259668    -80.671263
PG28 -25684.477679   6157.444683   2744.449539    -65.470044
PG29  -8925.999163 -13719.354276  20851.313141   -609.895585
PG30  26418.648029   -325.251027   4005.403875   -459.485866
PG31 -22362.954643   9955.122879  10598.297374   -226.453878
PG32 -17047.448983   6877.738981 -18906.334953   -594.500231
PJ02 -26098.650469  22772.026301  29188.227345     -0.480364
PJ03 -34410.481960  20972.870258  -7539.062027    -11.242917
PJ04 -19370.405842  29900.868210 -17537.878384     73.820849
PR01   9820.538987  12511.945018  19941.181927     71.713225
PR02  10488.502646  -6750.128118  22303.088160    -22.317359
PR03   5509.185222 -22076.767858  11640.526736     90.565052
PR04  -2124.109543 -24902.879323  -5131.067507    214.462457
PR05  -8691.374550 -14433.171956 -19157.150742    123.521538
PR07  -5135.699159  22487.994881 -10789.564581     70.934858
PR08   2491.455110  24782.584292   5461.626086    -73.591965
PR09 -19919.730665  -1854.173124  15791.037656    157.717634
PR11   9719.584575  15250.330153  18003.242454   -219.649276
PR12  21937.132972  12974.154853    817.989351     34.279840
PR13  20894.922742   3849.917710 -14129.268092    -42.124700
PR14   6355.963414  -9194.703301 -22922.043056     25.734278
PR15 -10832.334412 -15617.560472 -16997.254916     84.111792
PR16 -21936.972484 -12938.835524  -1092.201995     21.376445
PR17  16739.158673 -15480.287691  11410.720037     41.943869
PR18   2394.770181 -12680.265084  22034.925511    115.973048
PR19 -11983.497531  -4859.080921  21995.687739   -257.622390
PR20 -23059.427658   8292.901349   7028.484881   -104.842280
PR21 -16535.023811  15367.159839 -11898.742048    -59.585714
PR22  -1525.705686  12540.269820 -22126.434627     97.410597
PR24  22822.753048  -9433.009951  -6328.418954    -35.233792
EOF
